[{"OBJECT_NAME":"OTTER","OBJECT_ID":"2025-009Q","EPOCH":"2026-03-09T17:21:07.902432","MEAN_MOTION":15.27809545,"ECCENTRICITY":0.00035728,"INCLINATION":97.4065,"RA_OF_ASC_NODE":151.3812,"ARG_OF_PERICENTER":310.771,"MEAN_ANOMALY":49.3219,"EPHEMERIS_TYPE":0,"CLASSIFICATION_TYPE":"U","NORAD_CAT_ID":62623,"ELEMENT_SET_NO":999,"REV_AT_EPOCH":6372,"BSTAR":0.00045151206,"MEAN_MOTION_DOT":0.00012198,"MEAN_MOTION_DDOT":0},{"OBJECT_NAME":"STARLINK-34150","OBJECT_ID":"2025-101E","EPOCH":"2026-03-09T04:08:41.179776","MEAN_MOTION":15.27562634,"ECCENTRICITY":6.953e-5,"INCLINATION":43.0019,"RA_OF_ASC_NODE":1.1076,"ARG_OF_PERICENTER":271.663,"MEAN_ANOMALY":88.4142,"EPHEMERIS_TYPE":0,"CLASSIFICATION_TYPE":"U","NORAD_CAT_ID":63998,"ELEMENT_SET_NO":999,"REV_AT_EPOCH":4697,"BSTAR":0.0013070268,"MEAN_MOTION_DOT":0.0003586,"MEAN_MOTION_DDOT":0}]
