OTTER                   
1 62623U 25009Q   26068.72300813  .00012198  00000+0  45151-3 0  9990
2 62623  97.4065 151.3812 0003573 310.7710  49.3219 15.27809545 63722
STARLINK-34150          
1 63998U 25101E   26068.17269884  .00035860  00000+0  13070-2 0  9995
2 63998  43.0019   1.1076 0000695 271.6630  88.4142 15.27562634 46978
